ADRAS-J                 
1 58992U 24034A   24293.21205977  .00014578  00000+0  12779-2 0  9991
2 58992  98.2267 272.1130 0042393   3.1148 357.0327 14.96072030 36393
